start=new Date('2022-07-28T00:00:00.000Z').valueOf();
sats=[{"MEAN_ANOMALY":"359.2105","EPHEMERIS_TYPE":"0","TLE_LINE2":"2 51896  53.2168 168.2838 0002179  53.4966 359.2105 15.08831298  1308","ECCENTRICITY":"0.00021790","TIME_SYSTEM":"UTC","MEAN_MOTION_DDOT":"0.0000000000000","CENTER_NAME":"EARTH","LAUNCH_DATE":"2022-03-03","OBJECT_NAME":"STARLINK-3593","COUNTRY_CODE":"US","CLASSIFICATION_TYPE":"U","OBJECT_TYPE":"PAYLOAD","PERIAPSIS":"538.265","FILE":"3523323","APOAPSIS":"541.279","INCLINATION":"53.2168","DECAY_DATE":null,"REV_AT_EPOCH":"130","MEAN_ELEMENT_THEORY":"SGP4","BSTAR":"0.00070766000000","MEAN_MOTION_DOT":"0.00010990","EPOCH":"2022-07-27T22:00:00.999936","OBJECT_ID":"2022-022AW","SITE":"AFETR","NORAD_CAT_ID":"51896","GP_ID":"209000010","ELEMENT_SET_NO":"999","REF_FRAME":"TEME","RA_OF_ASC_NODE":"168.2838","SEMIMAJOR_AXIS":"6917.907","RCS_SIZE":"LARGE","MEAN_MOTION":"15.08831298","ARG_OF_PERICENTER":"53.4966","PERIOD":"95.438","TLE_LINE1":"1 51896U 22022AW  22208.91667824  .00010990  00000-0  70766-3 0  9992"},{"OBJECT_TYPE":"PAYLOAD","COUNTRY_CODE":"US","CLASSIFICATION_TYPE":"U","PERIAPSIS":"538.438","OBJECT_NAME":"STARLINK-3598","APOAPSIS":"541.070","INCLINATION":"53.2178","FILE":"3523323","TLE_LINE2":"2 51897  53.2178 168.2859 0001902  65.1395  12.7974 15.08837125  1302","ECCENTRICITY":"0.00019020","TIME_SYSTEM":"UTC","MEAN_MOTION_DDOT":"0.0000000000000","MEAN_ANOMALY":"12.7974","EPHEMERIS_TYPE":"0","CENTER_NAME":"EARTH","LAUNCH_DATE":"2022-03-03","RCS_SIZE":"LARGE","ARG_OF_PERICENTER":"65.1395","MEAN_MOTION":"15.08837125","TLE_LINE1":"1 51897U 22022AX  22208.91667824  .00009673  00000-0  62503-3 0  9999","PERIOD":"95.438","MEAN_MOTION_DOT":"0.00009673","EPOCH":"2022-07-27T22:00:00.999936","OBJECT_ID":"2022-022AX","SITE":"AFETR","DECAY_DATE":null,"REV_AT_EPOCH":"130","MEAN_ELEMENT_THEORY":"SGP4","BSTAR":"0.00062503000000","ELEMENT_SET_NO":"999","REF_FRAME":"TEME","RA_OF_ASC_NODE":"168.2859","SEMIMAJOR_AXIS":"6917.889","NORAD_CAT_ID":"51897","GP_ID":"209001254"},{"SEMIMAJOR_AXIS":"6917.900","RA_OF_ASC_NODE":"168.2856","REF_FRAME":"TEME","ELEMENT_SET_NO":"999","NORAD_CAT_ID":"51898","GP_ID":"209001010","SITE":"AFETR","EPOCH":"2022-07-27T22:00:00.999936","MEAN_MOTION_DOT":"0.00009875","OBJECT_ID":"2022-022AY","MEAN_ELEMENT_THEORY":"SGP4","BSTAR":"0.00063780000000","REV_AT_EPOCH":"130","DECAY_DATE":null,"TLE_LINE1":"1 51898U 22022AY  22208.91667824  .00009875  00000-0  63780-3 0  9992","PERIOD":"95.438","RCS_SIZE":"LARGE","ARG_OF_PERICENTER":"66.7137","MEAN_MOTION":"15.08833583","LAUNCH_DATE":"2022-03-03","CENTER_NAME":"EARTH","MEAN_MOTION_DDOT":"0.0000000000000","TIME_SYSTEM":"UTC","TLE_LINE2":"2 51898  53.2174 168.2856 0001777  66.7137  31.0882 15.08833583  1303","ECCENTRICITY":"0.00017770","EPHEMERIS_TYPE":"0","MEAN_ANOMALY":"31.0882","INCLINATION":"53.2174","APOAPSIS":"540.994","FILE":"3523323","PERIAPSIS":"538.536","OBJECT_TYPE":"PAYLOAD","COUNTRY_CODE":"US","CLASSIFICATION_TYPE":"U","OBJECT_NAME":"STARLINK-3597"},{"GP_ID":"208976991","NORAD_CAT_ID":"51956","RA_OF_ASC_NODE":"197.9284","SEMIMAJOR_AXIS":"6917.854","REF_FRAME":"TEME","ELEMENT_SET_NO":"999","REV_AT_EPOCH":"2290","BSTAR":"0.00048972000000","MEAN_ELEMENT_THEORY":"SGP4","DECAY_DATE":null,"SITE":"AFETR","MEAN_MOTION_DOT":"0.00007516","OBJECT_ID":"2022-025A","EPOCH":"2022-07-28T00:00:00.999648","PERIOD":"95.437","TLE_LINE1":"1 51956U 22025A   22209.00001157  .00007516  00000-0  48972-3 0  9998","RCS_SIZE":"LARGE","ARG_OF_PERICENTER":"41.7571","MEAN_MOTION":"15.08848776","LAUNCH_DATE":"2022-03-09","CENTER_NAME":"EARTH","EPHEMERIS_TYPE":"0","MEAN_ANOMALY":"23.9862","TIME_SYSTEM":"UTC","MEAN_MOTION_DDOT":"0.0000000000000","TLE_LINE2":"2 51956  53.2147 197.9284 0002068  41.7571  23.9862 15.08848776 22908","ECCENTRICITY":"0.00020680","FILE":"3523310","INCLINATION":"53.2147","APOAPSIS":"541.149","OBJECT_NAME":"STARLINK-3700","COUNTRY_CODE":"US","CLASSIFICATION_TYPE":"U","OBJECT_TYPE":"PAYLOAD","PERIAPSIS":"538.288"},{"APOAPSIS":"541.064","INCLINATION":"53.2168","FILE":"3523310","OBJECT_TYPE":"PAYLOAD","COUNTRY_CODE":"US","CLASSIFICATION_TYPE":"U","PERIAPSIS":"538.030","OBJECT_NAME":"STARLINK-3694","CENTER_NAME":"EARTH","LAUNCH_DATE":"2022-03-09","ECCENTRICITY":"0.00021930","TLE_LINE2":"2 51957  53.2168 197.9195 0002193  49.3408 116.4026 15.08904887 22934","TIME_SYSTEM":"UTC","MEAN_MOTION_DDOT":"0.0000000000000","MEAN_ANOMALY":"116.4026","EPHEMERIS_TYPE":"0","TLE_LINE1":"1 51957U 22025B   22209.00001157 -.00107411  00000-0 -68201-2 0  9992","PERIOD":"95.433","RCS_SIZE":"LARGE","ARG_OF_PERICENTER":"49.3408","MEAN_MOTION":"15.08904887","REF_FRAME":"TEME","ELEMENT_SET_NO":"999","RA_OF_ASC_NODE":"197.9195","SEMIMAJOR_AXIS":"6917.682","GP_ID":"208976990","NORAD_CAT_ID":"51957","OBJECT_ID":"2022-025B","MEAN_MOTION_DOT":"-0.00107411","EPOCH":"2022-07-28T00:00:00.999648","SITE":"AFETR","DECAY_DATE":null,"REV_AT_EPOCH":"2293","BSTAR":"-0.00682010000000","MEAN_ELEMENT_THEORY":"SGP4"},{"SITE":"AFETR","MEAN_MOTION_DOT":"0.00039015","OBJECT_ID":"2022-025C","EPOCH":"2022-07-27T22:00:00.999936","REV_AT_EPOCH":"130","MEAN_ELEMENT_THEORY":"SGP4","BSTAR":"0.00245580000000","DECAY_DATE":null,"RA_OF_ASC_NODE":"198.3086","SEMIMAJOR_AXIS":"6917.878","ELEMENT_SET_NO":"999","REF_FRAME":"TEME","GP_ID":"209000506","NORAD_CAT_ID":"51958","RCS_SIZE":"LARGE","ARG_OF_PERICENTER":"47.1759","MEAN_MOTION":"15.08840797","TLE_LINE1":"1 51958U 22025C   22208.91667824  .00039015  00000-0  24558-2 0  9990","PERIOD":"95.438","TIME_SYSTEM":"UTC","MEAN_MOTION_DDOT":"0.0000000000000","ECCENTRICITY":"0.00024840","TLE_LINE2":"2 51958  53.2154 198.3086 0002484  47.1759 305.6201 15.08840797  1306","EPHEMERIS_TYPE":"0","MEAN_ANOMALY":"305.6201","LAUNCH_DATE":"2022-03-09","CENTER_NAME":"EARTH","COUNTRY_CODE":"US","CLASSIFICATION_TYPE":"U","OBJECT_TYPE":"PAYLOAD","PERIAPSIS":"538.025","OBJECT_NAME":"STARLINK-3692","INCLINATION":"53.2154","APOAPSIS":"541.461","FILE":"3523323"},{"EPOCH":"2022-07-27T22:00:00.999936","MEAN_MOTION_DOT":"0.00037882","OBJECT_ID":"2022-025D","SITE":"AFETR","DECAY_DATE":null,"REV_AT_EPOCH":"130","BSTAR":"0.00238750000000","MEAN_ELEMENT_THEORY":"SGP4","REF_FRAME":"TEME","ELEMENT_SET_NO":"999","RA_OF_ASC_NODE":"198.2978","SEMIMAJOR_AXIS":"6917.977","NORAD_CAT_ID":"51959","GP_ID":"209000765","RCS_SIZE":"LARGE","ARG_OF_PERICENTER":"44.3970","MEAN_MOTION":"15.08808376","TLE_LINE1":"1 51959U 22025D   22208.91667824  .00037882  00000-0  23875-2 0  9992","PERIOD":"95.440","TLE_LINE2":"2 51959  53.2132 198.2978 0002322  44.3970   8.4428 15.08808376  1303","ECCENTRICITY":"0.00023220","TIME_SYSTEM":"UTC","MEAN_MOTION_DDOT":"0.0000000000000","MEAN_ANOMALY":"8.4428","EPHEMERIS_TYPE":"0","CENTER_NAME":"EARTH","LAUNCH_DATE":"2022-03-09","COUNTRY_CODE":"US","CLASSIFICATION_TYPE":"U","OBJECT_TYPE":"PAYLOAD","PERIAPSIS":"538.236","OBJECT_NAME":"STARLINK-3704","APOAPSIS":"541.448","INCLINATION":"53.2132","FILE":"3523323"},{"CENTER_NAME":"EARTH","LAUNCH_DATE":"2022-03-09","TLE_LINE2":"2 51960  53.2141 198.2906 0001973  45.9766  46.8282 15.08808576  1303","ECCENTRICITY":"0.00019730","TIME_SYSTEM":"UTC","MEAN_MOTION_DDOT":"0.0000000000000","MEAN_ANOMALY":"46.8282","EPHEMERIS_TYPE":"0","APOAPSIS":"541.206","INCLINATION":"53.2141","FILE":"3523323","OBJECT_TYPE":"PAYLOAD","COUNTRY_CODE":"US","CLASSIFICATION_TYPE":"U","PERIAPSIS":"538.477","OBJECT_NAME":"STARLINK-3691","ELEMENT_SET_NO":"999","REF_FRAME":"TEME","RA_OF_ASC_NODE":"198.2906","SEMIMAJOR_AXIS":"6917.976","GP_ID":"209001506","NORAD_CAT_ID":"51960","MEAN_MOTION_DOT":"0.00034768","EPOCH":"2022-07-27T22:00:00.999936","OBJECT_ID":"2022-025E","SITE":"AFETR","DECAY_DATE":null,"REV_AT_EPOCH":"130","BSTAR":"0.00219370000000","MEAN_ELEMENT_THEORY":"SGP4","TLE_LINE1":"1 51960U 22025E   22208.91667824  .00034768  00000-0  21937-2 0  9991","PERIOD":"95.440","MEAN_MOTION":"15.08808576","RCS_SIZE":"LARGE","ARG_OF_PERICENTER":"45.9766"},{"DECAY_DATE":null,"BSTAR":"0.00246930000000","MEAN_ELEMENT_THEORY":"SGP4","REV_AT_EPOCH":"130","MEAN_MOTION_DOT":"0.00039199","EPOCH":"2022-07-27T22:00:00.999936","OBJECT_ID":"2022-025F","SITE":"AFETR","NORAD_CAT_ID":"51961","GP_ID":"209000256","ELEMENT_SET_NO":"999","REF_FRAME":"TEME","SEMIMAJOR_AXIS":"6917.972","RA_OF_ASC_NODE":"198.3033","RCS_SIZE":"LARGE","MEAN_MOTION":"15.08810120","ARG_OF_PERICENTER":"45.1159","PERIOD":"95.439","TLE_LINE1":"1 51961U 22025F   22208.91667824  .00039199  00000-0  24693-2 0  9997","MEAN_ANOMALY":"327.7432","EPHEMERIS_TYPE":"0","TLE_LINE2":"2 51961  53.2146 198.3033 0002519  45.1159 327.7432 15.08810120  1302","ECCENTRICITY":"0.00025190","MEAN_MOTION_DDOT":"0.0000000000000","TIME_SYSTEM":"UTC","CENTER_NAME":"EARTH","LAUNCH_DATE":"2022-03-09","OBJECT_NAME":"STARLINK-3689","PERIAPSIS":"538.094","COUNTRY_CODE":"US","CLASSIFICATION_TYPE":"U","OBJECT_TYPE":"PAYLOAD","FILE":"3523323","APOAPSIS":"541.579","INCLINATION":"53.2146"},{"ARG_OF_PERICENTER":"43.6829","RCS_SIZE":"LARGE","MEAN_MOTION":"15.08814941","TLE_LINE1":"1 51962U 22025G   22208.91667824  .00031459  00000-0  19872-2 0  9992","PERIOD":"95.439","SITE":"AFETR","OBJECT_ID":"2022-025G","MEAN_MOTION_DOT":"0.00031459","EPOCH":"2022-07-27T22:00:00.999936","BSTAR":"0.00198720000000","MEAN_ELEMENT_THEORY":"SGP4","REV_AT_EPOCH":"130","DECAY_DATE":null,"SEMIMAJOR_AXIS":"6917.957","RA_OF_ASC_NODE":"198.2890","ELEMENT_SET_NO":"999","REF_FRAME":"TEME","NORAD_CAT_ID":"51962","GP_ID":"209000014","PERIAPSIS":"538.320","COUNTRY_CODE":"US","OBJECT_TYPE":"PAYLOAD","CLASSIFICATION_TYPE":"U","OBJECT_NAME":"STARLINK-3697","INCLINATION":"53.2155","APOAPSIS":"541.324","FILE":"3523323","MEAN_MOTION_DDOT":"0.0000000000000","TIME_SYSTEM":"UTC","ECCENTRICITY":"0.00021710","TLE_LINE2":"2 51962  53.2155 198.2890 0002171  43.6829  84.0202 15.08814941  1307","EPHEMERIS_TYPE":"0","MEAN_ANOMALY":"84.0202","LAUNCH_DATE":"2022-03-09","CENTER_NAME":"EARTH"}];
